{"type": "FeatureCollection", "features": [ {"type": "Feature", "properties": {"norad_id": 29906, "name": "FENGYUN 1C DEB", "group": "fengyun-1c-debris", "lat": -74.6791721351806, "lon": 119.1441723316303, "alt_km": 747.5513221597694, "timestamp": "2025-12-07T22:37:43.351871+00:00", "meta": {"OBJECT_NAME": "FENGYUN 1C DEB", "OBJECT_ID": "1999-025HC", "EPOCH": "2025-12-07T06:25:12.652320", "MEAN_MOTION": 14.4948087, "ECCENTRICITY": 0.00373988, "INCLINATION": 98.7064, "RA_OF_ASC_NODE": 84.4372, "ARG_OF_PERICENTER": 165.2853, "MEAN_ANOMALY": 194.9438, "EPHEMERIS_TYPE": 0, "CLASSIFICATION_TYPE": "U", "NORAD_CAT_ID": 29906, "ELEMENT_SET_NO": 999, "REV_AT_EPOCH": 98078, "BSTAR": 0.0041330265, "MEAN_MOTION_DOT": 0.00015961, "MEAN_MOTION_DDOT": 0}, "tle": {"line1": "1 29906U 99025HC  25341.26750755  .00015961  00000+0  41330-2 0  9997", "line2": "2 29906  98.7064  84.4372 0037398 165.2853 194.9438 14.49480870980785"}}, "geometry": {"type": "Point", "coordinates": [119.1441723316303, -74.6791721351806]}}, {"type": "Feature", "properties": {"norad_id": 29907, "name": "FENGYUN 1C DEB", "group": "fengyun-1c-debris", "lat": 3.326675008275705, "lon": 48.00905371351719, "alt_km": 866.9290701708987, "timestamp": "2025-12-07T22:37:43.351881+00:00", "meta": {"OBJECT_NAME": "FENGYUN 1C DEB", "OBJECT_ID": "1999-025HD", "EPOCH": "2025-12-07T04:01:38.580960", "MEAN_MOTION": 14.11587465, "ECCENTRICITY": 0.00834686, "INCLINATION": 99.1118, "RA_OF_ASC_NODE": 47.7568, "ARG_OF_PERICENTER": 265.1131, "MEAN_ANOMALY": 120.9872, "EPHEMERIS_TYPE": 0, "CLASSIFICATION_TYPE": "U", "NORAD_CAT_ID": 29907, "ELEMENT_SET_NO": 999, "REV_AT_EPOCH": 96520, "BSTAR": 0.002350465, "MEAN_MOTION_DOT": 4.367e-05, "MEAN_MOTION_DDOT": 0}, "tle": {"line1": "1 29907U 99025HD  25341.16780765  .00004367  00000+0  23505-2 0  9993", "line2": "2 29907  99.1118  47.7568 0083468 265.1131 120.9872 14.11587465965206"}}, "geometry": {"type": "Point", "coordinates": [48.00905371351719, 3.326675008275705]}}, {"type": "Feature", "properties": {"norad_id": 29909, "name": "FENGYUN 1C DEB", "group": "fengyun-1c-debris", "lat": -79.06300395638337, "lon": -146.26807940099252, "alt_km": 733.1771057260457, "timestamp": "2025-12-07T22:37:43.351892+00:00", "meta": {"OBJECT_NAME": "FENGYUN 1C DEB", "OBJECT_ID": "1999-025HF", "EPOCH": "2025-12-07T06:41:10.442976", "MEAN_MOTION": 14.54979175, "ECCENTRICITY": 0.00384396, "INCLINATION": 98.6357, "RA_OF_ASC_NODE": 84.9009, "ARG_OF_PERICENTER": 32.6892, "MEAN_ANOMALY": 353.5279, "EPHEMERIS_TYPE": 0, "CLASSIFICATION_TYPE": "U", "NORAD_CAT_ID": 29909, "ELEMENT_SET_NO": 999, "REV_AT_EPOCH": 98326, "BSTAR": 0.0032612425, "MEAN_MOTION_DOT": 0.00014154, "MEAN_MOTION_DDOT": 0}, "tle": {"line1": "1 29909U 99025HF  25341.27859309  .00014154  00000+0  32612-2 0  9992", "line2": "2 29909  98.6357  84.9009 0038439  32.6892 353.5279 14.54979175983260"}}, "geometry": {"type": "Point", "coordinates": [-146.26807940099252, -79.06300395638337]}}, {"type": "Feature", "properties": {"norad_id": 29911, "name": "FENGYUN 1C DEB", "group": "fengyun-1c-debris", "lat": -45.58973653897161, "lon": 34.146048283317675, "alt_km": 852.9890757749645, "timestamp": "2025-12-07T22:37:43.351903+00:00", "meta": {"OBJECT_NAME": "FENGYUN 1C DEB", "OBJECT_ID": "1999-025HH", "EPOCH": "2025-12-07T01:08:21.059808", "MEAN_MOTION": 14.18829438, "ECCENTRICITY": 0.00273322, "INCLINATION": 98.7156, "RA_OF_ASC_NODE": 24.2571, "ARG_OF_PERICENTER": 166.7319, "MEAN_ANOMALY": 255.9891, "EPHEMERIS_TYPE": 0, "CLASSIFICATION_TYPE": "U", "NORAD_CAT_ID": 29911, "ELEMENT_SET_NO": 999, "REV_AT_EPOCH": 97350, "BSTAR": 0.0012515701, "MEAN_MOTION_DOT": 2.57e-05, "MEAN_MOTION_DDOT": 0}, "tle": {"line1": "1 29911U 99025HH  25341.04746597  .00002570  00000+0  12516-2 0  9994", "line2": "2 29911  98.7156  24.2571 0027332 166.7319 255.9891 14.18829438973502"}}, "geometry": {"type": "Point", "coordinates": [34.146048283317675, -45.58973653897161]}}, {"type": "Feature", "properties": {"norad_id": 29912, "name": "FENGYUN 1C DEB", "group": "fengyun-1c-debris", "lat": -35.4843982414107, "lon": -107.02649989170301, "alt_km": 726.1525153923276, "timestamp": "2025-12-07T22:37:43.351913+00:00", "meta": {"OBJECT_NAME": "FENGYUN 1C DEB", "OBJECT_ID": "1999-025HJ", "EPOCH": "2025-12-06T22:38:16.895904", "MEAN_MOTION": 14.42848301, "ECCENTRICITY": 0.00426686, "INCLINATION": 98.7392, "RA_OF_ASC_NODE": 78.2446, "ARG_OF_PERICENTER": 235.6564, "MEAN_ANOMALY": 191.0546, "EPHEMERIS_TYPE": 0, "CLASSIFICATION_TYPE": "U", "NORAD_CAT_ID": 29912, "ELEMENT_SET_NO": 999, "REV_AT_EPOCH": 97955, "BSTAR": 0.0035235875, "MEAN_MOTION_DOT": 0.00011864, "MEAN_MOTION_DDOT": 0}, "tle": {"line1": "1 29912U 99025HJ  25340.94325111  .00011864  00000+0  35236-2 0  9998", "line2": "2 29912  98.7392  78.2446 0042668 235.6564 191.0546 14.42848301979557"}}, "geometry": {"type": "Point", "coordinates": [-107.02649989170301, -35.4843982414107]}}, {"type": "Feature", "properties": {"norad_id": 29913, "name": "FENGYUN 1C DEB", "group": "fengyun-1c-debris", "lat": -37.75061218947086, "lon": 154.0475919670299, "alt_km": 856.9963175508756, "timestamp": "2025-12-07T22:37:43.351924+00:00", "meta": {"OBJECT_NAME": "FENGYUN 1C DEB", "OBJECT_ID": "1999-025HK", "EPOCH": "2025-12-06T19:08:01.580064", "MEAN_MOTION": 14.0737237, "ECCENTRICITY": 0.00619522, "INCLINATION": 98.7874, "RA_OF_ASC_NODE": 339.8124, "ARG_OF_PERICENTER": 288.4979, "MEAN_ANOMALY": 249.2155, "EPHEMERIS_TYPE": 0, "CLASSIFICATION_TYPE": "U", "NORAD_CAT_ID": 29913, "ELEMENT_SET_NO": 999, "REV_AT_EPOCH": 96881, "BSTAR": 0.00053857471, "MEAN_MOTION_DOT": 8.78e-06, "MEAN_MOTION_DDOT": 0}, "tle": {"line1": "1 29913U 99025HK  25340.79724051  .00000878  00000+0  53857-3 0  9991", "line2": "2 29913  98.7874 339.8124 0061952 288.4979 249.2155 14.07372370968813"}}, "geometry": {"type": "Point", "coordinates": [154.0475919670299, -37.75061218947086]}}, {"type": "Feature", "properties": {"norad_id": 29914, "name": "FENGYUN 1C DEB", "group": "fengyun-1c-debris", "lat": 69.98976207590852, "lon": -14.659203818706722, "alt_km": 861.4304830135998, "timestamp": "2025-12-07T22:37:43.351934+00:00", "meta": {"OBJECT_NAME": "FENGYUN 1C DEB", "OBJECT_ID": "1999-025HL", "EPOCH": "2025-12-07T00:21:43.904736", "MEAN_MOTION": 14.03129213, "ECCENTRICITY": 0.0036357, "INCLINATION": 98.8453, "RA_OF_ASC_NODE": 9.7537, "ARG_OF_PERICENTER": 130.8659, "MEAN_ANOMALY": 297.6617, "EPHEMERIS_TYPE": 0, "CLASSIFICATION_TYPE": "U", "NORAD_CAT_ID": 29914, "ELEMENT_SET_NO": 999, "REV_AT_EPOCH": 96706, "BSTAR": 0.00029907491, "MEAN_MOTION_DOT": 4.26e-06, "MEAN_MOTION_DDOT": 0}, "tle": {"line1": "1 29914U 99025HL  25341.01509149  .00000426  00000+0  29907-3 0  9995", "line2": "2 29914  98.8453   9.7537 0036357 130.8659 297.6617 14.03129213967063"}}, "geometry": {"type": "Point", "coordinates": [-14.659203818706722, 69.98976207590852]}}, {"type": "Feature", "properties": {"norad_id": 29916, "name": "FENGYUN 1C DEB", "group": "fengyun-1c-debris", "lat": 33.23508435084012, "lon": -172.40960691502548, "alt_km": 1155.1763498682303, "timestamp": "2025-12-07T22:37:43.351945+00:00", "meta": {"OBJECT_NAME": "FENGYUN 1C DEB", "OBJECT_ID": "1999-025HN", "EPOCH": "2025-12-07T07:49:47.168832", "MEAN_MOTION": 13.5697469, "ECCENTRICITY": 0.02711225, "INCLINATION": 99.1951, "RA_OF_ASC_NODE": 0.921, "ARG_OF_PERICENTER": 272.3876, "MEAN_ANOMALY": 105.6909, "EPHEMERIS_TYPE": 0, "CLASSIFICATION_TYPE": "U", "NORAD_CAT_ID": 29916, "ELEMENT_SET_NO": 999, "REV_AT_EPOCH": 93379, "BSTAR": 0.0011167994, "MEAN_MOTION_DOT": 9.64e-06, "MEAN_MOTION_DDOT": 0}, "tle": {"line1": "1 29916U 99025HN  25341.32624038  .00000964  00000+0  11168-2 0  9992", "line2": "2 29916  99.1951   0.9210 0271122 272.3876 105.6909 13.56974690933796"}}, "geometry": {"type": "Point", "coordinates": [-172.40960691502548, 33.23508435084012]}}, {"type": "Feature", "properties": {"norad_id": 29917, "name": "FENGYUN 1C DEB", "group": "fengyun-1c-debris", "lat": 5.884137045019596, "lon": -156.9791266075295, "alt_km": 1105.9263864936229, "timestamp": "2025-12-07T22:37:43.351956+00:00", "meta": {"OBJECT_NAME": "FENGYUN 1C DEB", "OBJECT_ID": "1999-025HP", "EPOCH": "2025-12-06T20:23:12.093792", "MEAN_MOTION": 13.70391843, "ECCENTRICITY": 0.02225856, "INCLINATION": 98.8765, "RA_OF_ASC_NODE": 202.9335, "ARG_OF_PERICENTER": 140.0025, "MEAN_ANOMALY": 236.6136, "EPHEMERIS_TYPE": 0, "CLASSIFICATION_TYPE": "U", "NORAD_CAT_ID": 29917, "ELEMENT_SET_NO": 999, "REV_AT_EPOCH": 94050, "BSTAR": 0.0015632061, "MEAN_MOTION_DOT": 1.608e-05, "MEAN_MOTION_DDOT": 0}, "tle": {"line1": "1 29917U 99025HP  25340.84944553  .00001608  00000+0  15632-2 0  9992", "line2": "2 29917  98.8765 202.9335 0222585 140.0025 236.6136 13.70391843940507"}}, "geometry": {"type": "Point", "coordinates": [-156.9791266075295, 5.884137045019596]}}, {"type": "Feature", "properties": {"norad_id": 29918, "name": "FENGYUN 1C DEB", "group": "fengyun-1c-debris", "lat": -6.673289164740813, "lon": -116.77567047512314, "alt_km": 791.1602979670442, "timestamp": "2025-12-07T22:37:43.351966+00:00", "meta": {"OBJECT_NAME": "FENGYUN 1C DEB", "OBJECT_ID": "1999-025HQ", "EPOCH": "2025-12-06T19:33:05.523264", "MEAN_MOTION": 14.33529531, "ECCENTRICITY": 0.00127319, "INCLINATION": 98.855, "RA_OF_ASC_NODE": 63.1156, "ARG_OF_PERICENTER": 335.4191, "MEAN_ANOMALY": 152.1818, "EPHEMERIS_TYPE": 0, "CLASSIFICATION_TYPE": "U", "NORAD_CAT_ID": 29918, "ELEMENT_SET_NO": 999, "REV_AT_EPOCH": 97709, "BSTAR": 0.0028390399, "MEAN_MOTION_DOT": 7.821e-05, "MEAN_MOTION_DDOT": 0}, "tle": {"line1": "1 29918U 99025HQ  25340.81464726  .00007821  00000+0  28390-2 0  9997", "line2": "2 29918  98.8550  63.1156 0012731 335.4191 152.1818 14.33529531977092"}}, "geometry": {"type": "Point", "coordinates": [-116.77567047512314, -6.673289164740813]}}]}